start=new Date('2022-09-04T00:00:00.000Z').valueOf();
sats=[{"ECCENTRICITY":"0.00018790","TLE_LINE2":"2 53216  97.6556 307.0584 0001879  96.1986 359.9323 15.08743580  1307","GP_ID":"211674508","COUNTRY_CODE":"US","BSTAR":"-0.08499100000000","FILE":"3556957","MEAN_ELEMENT_THEORY":"SGP4","MEAN_ANOMALY":"359.9323","TIME_SYSTEM":"UTC","REF_FRAME":"TEME","ELEMENT_SET_NO":"999","INCLINATION":"97.6556","REV_AT_EPOCH":"130","EPHEMERIS_TYPE":"0","NORAD_CAT_ID":"53216","RCS_SIZE":"LARGE","TLE_LINE1":"1 53216U 22084AD  22246.91667824 -.01220920  00000-0 -84991-1 0  9992","MEAN_MOTION_DDOT":"0.0000000000000","DECAY_DATE":null,"SITE":"AFWTR","OBJECT_TYPE":"PAYLOAD","CENTER_NAME":"EARTH","EPOCH":"2022-09-03T22:00:00.999936","MEAN_MOTION_DOT":"-0.01220920","SEMIMAJOR_AXIS":"6918.175","ARG_OF_PERICENTER":"96.1986","OBJECT_ID":"2022-084AD","OBJECT_NAME":"STARLINK-4376","CLASSIFICATION_TYPE":"U","APOAPSIS":"541.340","LAUNCH_DATE":"2022-07-22","MEAN_MOTION":"15.08743580","RA_OF_ASC_NODE":"307.0584","PERIAPSIS":"538.740","PERIOD":"95.444"},{"EPOCH":"2022-09-03T22:00:00.999936","CENTER_NAME":"EARTH","ARG_OF_PERICENTER":"105.3703","SEMIMAJOR_AXIS":"6917.135","MEAN_MOTION_DOT":"-0.01221041","RCS_SIZE":"LARGE","TLE_LINE1":"1 53217U 22084AE  22246.91667824 -.01221041  00000-0 -84208-1 0  9999","OBJECT_TYPE":"PAYLOAD","DECAY_DATE":null,"SITE":"AFWTR","MEAN_MOTION_DDOT":"0.0000000000000","PERIOD":"95.422","MEAN_MOTION":"15.09083994","LAUNCH_DATE":"2022-07-22","CLASSIFICATION_TYPE":"U","APOAPSIS":"540.362","OBJECT_NAME":"STARLINK-4379","OBJECT_ID":"2022-084AE","RA_OF_ASC_NODE":"307.0499","PERIAPSIS":"537.638","TIME_SYSTEM":"UTC","MEAN_ELEMENT_THEORY":"SGP4","MEAN_ANOMALY":"14.9543","FILE":"3556957","BSTAR":"-0.08420800000000","REF_FRAME":"TEME","ECCENTRICITY":"0.00019690","COUNTRY_CODE":"US","GP_ID":"211674042","TLE_LINE2":"2 53217  97.6556 307.0499 0001969 105.3703  14.9543 15.09083994  1302","EPHEMERIS_TYPE":"0","NORAD_CAT_ID":"53217","ELEMENT_SET_NO":"999","INCLINATION":"97.6556","REV_AT_EPOCH":"130"},{"ECCENTRICITY":"0.00019090","GP_ID":"211673768","COUNTRY_CODE":"US","TLE_LINE2":"2 53218  97.6556 307.0591 0001909  98.4536   8.6621 15.08906840  1306","MEAN_ELEMENT_THEORY":"SGP4","MEAN_ANOMALY":"8.6621","TIME_SYSTEM":"UTC","FILE":"3556957","BSTAR":"-0.08461900000000","REF_FRAME":"TEME","ELEMENT_SET_NO":"999","INCLINATION":"97.6556","REV_AT_EPOCH":"130","EPHEMERIS_TYPE":"0","NORAD_CAT_ID":"53218","TLE_LINE1":"1 53218U 22084AF  22246.91667824 -.01221031  00000-0 -84619-1 0  9995","RCS_SIZE":"LARGE","SITE":"AFWTR","DECAY_DATE":null,"OBJECT_TYPE":"PAYLOAD","MEAN_MOTION_DDOT":"0.0000000000000","EPOCH":"2022-09-03T22:00:00.999936","CENTER_NAME":"EARTH","ARG_OF_PERICENTER":"98.4536","MEAN_MOTION_DOT":"-0.01221031","SEMIMAJOR_AXIS":"6917.676","LAUNCH_DATE":"2022-07-22","MEAN_MOTION":"15.08906840","OBJECT_NAME":"STARLINK-4384","OBJECT_ID":"2022-084AF","CLASSIFICATION_TYPE":"U","APOAPSIS":"540.862","PERIAPSIS":"538.221","RA_OF_ASC_NODE":"307.0591","PERIOD":"95.433"},{"LAUNCH_DATE":"2022-07-22","MEAN_MOTION":"15.09240861","OBJECT_ID":"2022-084AG","OBJECT_NAME":"STARLINK-4373","APOAPSIS":"539.877","CLASSIFICATION_TYPE":"U","PERIAPSIS":"537.164","RA_OF_ASC_NODE":"307.0464","PERIOD":"95.412","TLE_LINE1":"1 53219U 22084AG  22246.91667824 -.01221365  00000-0 -83870-1 0  9994","RCS_SIZE":"LARGE","DECAY_DATE":null,"SITE":"AFWTR","OBJECT_TYPE":"PAYLOAD","MEAN_MOTION_DDOT":"0.0000000000000","EPOCH":"2022-09-03T22:00:00.999936","CENTER_NAME":"EARTH","ARG_OF_PERICENTER":"96.1286","MEAN_MOTION_DOT":"-0.01221365","SEMIMAJOR_AXIS":"6916.655","INCLINATION":"97.6556","ELEMENT_SET_NO":"999","REV_AT_EPOCH":"130","EPHEMERIS_TYPE":"0","NORAD_CAT_ID":"53219","ECCENTRICITY":"0.00019610","GP_ID":"211673481","COUNTRY_CODE":"US","TLE_LINE2":"2 53219  97.6556 307.0464 0001961  96.1286  35.4531 15.09240861  1304","MEAN_ANOMALY":"35.4531","MEAN_ELEMENT_THEORY":"SGP4","TIME_SYSTEM":"UTC","FILE":"3556957","BSTAR":"-0.08387000000000","REF_FRAME":"TEME"},{"PERIOD":"95.426","MEAN_MOTION":"15.09020890","LAUNCH_DATE":"2022-07-22","APOAPSIS":"540.524","CLASSIFICATION_TYPE":"U","OBJECT_NAME":"STARLINK-4363","OBJECT_ID":"2022-084AH","PERIAPSIS":"537.861","RA_OF_ASC_NODE":"307.0514","EPOCH":"2022-09-03T22:00:00.999936","CENTER_NAME":"EARTH","ARG_OF_PERICENTER":"89.4087","SEMIMAJOR_AXIS":"6917.328","MEAN_MOTION_DOT":"-0.01221349","RCS_SIZE":"LARGE","TLE_LINE1":"1 53220U 22084AH  22246.91667824 -.01221349  00000-0 -84378-1 0  9992","OBJECT_TYPE":"PAYLOAD","SITE":"AFWTR","DECAY_DATE":null,"MEAN_MOTION_DDOT":"0.0000000000000","EPHEMERIS_TYPE":"0","NORAD_CAT_ID":"53220","ELEMENT_SET_NO":"999","INCLINATION":"97.6556","REV_AT_EPOCH":"130","TIME_SYSTEM":"UTC","MEAN_ANOMALY":"26.5134","MEAN_ELEMENT_THEORY":"SGP4","BSTAR":"-0.08437800000000","FILE":"3556957","REF_FRAME":"TEME","ECCENTRICITY":"0.00019250","COUNTRY_CODE":"US","GP_ID":"211674331","TLE_LINE2":"2 53220  97.6556 307.0514 0001925  89.4087  26.5134 15.09020890  1304"},{"REF_FRAME":"TEME","MEAN_ANOMALY":"42.6389","MEAN_ELEMENT_THEORY":"SGP4","TIME_SYSTEM":"UTC","FILE":"3556957","BSTAR":"-0.08322900000000","GP_ID":"211673629","COUNTRY_CODE":"US","TLE_LINE2":"2 53221  97.6555 307.0499 0002031 105.5570  42.6389 15.09516401  1301","ECCENTRICITY":"0.00020310","NORAD_CAT_ID":"53221","EPHEMERIS_TYPE":"0","REV_AT_EPOCH":"130","ELEMENT_SET_NO":"999","INCLINATION":"97.6555","ARG_OF_PERICENTER":"105.5570","MEAN_MOTION_DOT":"-0.01221282","SEMIMAJOR_AXIS":"6915.814","EPOCH":"2022-09-03T22:00:00.999936","CENTER_NAME":"EARTH","SITE":"AFWTR","DECAY_DATE":null,"OBJECT_TYPE":"PAYLOAD","MEAN_MOTION_DDOT":"0.0000000000000","TLE_LINE1":"1 53221U 22084AJ  22246.91667824 -.01221282  00000-0 -83229-1 0  9993","RCS_SIZE":"LARGE","PERIOD":"95.395","RA_OF_ASC_NODE":"307.0499","PERIAPSIS":"536.274","LAUNCH_DATE":"2022-07-22","MEAN_MOTION":"15.09516401","OBJECT_NAME":"STARLINK-4377","OBJECT_ID":"2022-084AJ","CLASSIFICATION_TYPE":"U","APOAPSIS":"539.083"},{"ARG_OF_PERICENTER":"104.5245","MEAN_MOTION_DOT":"-0.01221059","SEMIMAJOR_AXIS":"6917.118","EPOCH":"2022-09-03T22:00:00.999936","CENTER_NAME":"EARTH","SITE":"AFWTR","DECAY_DATE":null,"OBJECT_TYPE":"PAYLOAD","MEAN_MOTION_DDOT":"0.0000000000000","TLE_LINE1":"1 53222U 22084AK  22246.91667824 -.01221059  00000-0 -84197-1 0  9991","RCS_SIZE":"LARGE","PERIOD":"95.422","RA_OF_ASC_NODE":"307.0497","PERIAPSIS":"537.623","LAUNCH_DATE":"2022-07-22","MEAN_MOTION":"15.09089340","OBJECT_NAME":"STARLINK-4381","OBJECT_ID":"2022-084AK","CLASSIFICATION_TYPE":"U","APOAPSIS":"540.344","REF_FRAME":"TEME","MEAN_ANOMALY":"16.8351","MEAN_ELEMENT_THEORY":"SGP4","TIME_SYSTEM":"UTC","BSTAR":"-0.08419700000000","FILE":"3556957","GP_ID":"211674183","COUNTRY_CODE":"US","TLE_LINE2":"2 53222  97.6556 307.0497 0001967 104.5245  16.8351 15.09089340  1305","ECCENTRICITY":"0.00019670","NORAD_CAT_ID":"53222","EPHEMERIS_TYPE":"0","REV_AT_EPOCH":"130","ELEMENT_SET_NO":"999","INCLINATION":"97.6556"},{"EPHEMERIS_TYPE":"0","NORAD_CAT_ID":"53223","ELEMENT_SET_NO":"999","INCLINATION":"97.6555","REV_AT_EPOCH":"130","TIME_SYSTEM":"UTC","MEAN_ELEMENT_THEORY":"SGP4","MEAN_ANOMALY":"49.8364","BSTAR":"-0.08286900000000","FILE":"3556957","REF_FRAME":"TEME","ECCENTRICITY":"0.00020730","COUNTRY_CODE":"US","GP_ID":"211673895","TLE_LINE2":"2 53223  97.6555 307.0504 0002073 108.8073  49.8364 15.09673241  1308","PERIOD":"95.385","MEAN_MOTION":"15.09673241","LAUNCH_DATE":"2022-07-22","APOAPSIS":"538.633","CLASSIFICATION_TYPE":"U","OBJECT_NAME":"STARLINK-4354","OBJECT_ID":"2022-084AL","RA_OF_ASC_NODE":"307.0504","PERIAPSIS":"535.766","EPOCH":"2022-09-03T22:00:00.999936","CENTER_NAME":"EARTH","ARG_OF_PERICENTER":"108.8073","SEMIMAJOR_AXIS":"6915.335","MEAN_MOTION_DOT":"-0.01221276","TLE_LINE1":"1 53223U 22084AL  22246.91667824 -.01221276  00000-0 -82869-1 0  9997","RCS_SIZE":"LARGE","OBJECT_TYPE":"PAYLOAD","DECAY_DATE":null,"SITE":"AFWTR","MEAN_MOTION_DDOT":"0.0000000000000"},{"DECAY_DATE":null,"SITE":"AFWTR","OBJECT_TYPE":"PAYLOAD","MEAN_MOTION_DDOT":"0.0000000000000","TLE_LINE1":"1 53224U 22084AM  22246.91667824 -.01221329  00000-0 -84144-1 0  9995","RCS_SIZE":"LARGE","ARG_OF_PERICENTER":"94.1305","MEAN_MOTION_DOT":"-0.01221329","SEMIMAJOR_AXIS":"6917.021","EPOCH":"2022-09-03T22:00:00.999936","CENTER_NAME":"EARTH","PERIAPSIS":"537.543","RA_OF_ASC_NODE":"307.0470","LAUNCH_DATE":"2022-07-22","MEAN_MOTION":"15.09121199","OBJECT_ID":"2022-084AM","OBJECT_NAME":"STARLINK-4356","APOAPSIS":"540.229","CLASSIFICATION_TYPE":"U","PERIOD":"95.420","GP_ID":"211674509","COUNTRY_CODE":"US","TLE_LINE2":"2 53224  97.6556 307.0470 0001942  94.1305  29.7948 15.09121199  1306","ECCENTRICITY":"0.00019420","REF_FRAME":"TEME","MEAN_ANOMALY":"29.7948","MEAN_ELEMENT_THEORY":"SGP4","TIME_SYSTEM":"UTC","BSTAR":"-0.08414400000000","FILE":"3556957","REV_AT_EPOCH":"130","INCLINATION":"97.6556","ELEMENT_SET_NO":"999","NORAD_CAT_ID":"53224","EPHEMERIS_TYPE":"0"},{"MEAN_MOTION":"15.10411421","LAUNCH_DATE":"2022-07-22","CLASSIFICATION_TYPE":"U","APOAPSIS":"536.459","OBJECT_NAME":"STARLINK-4358","OBJECT_ID":"2022-084AN","PERIAPSIS":"533.434","RA_OF_ASC_NODE":"307.0615","PERIOD":"95.338","TLE_LINE1":"1 53225U 22084AN  22246.91667824 -.01221226  00000-0 -81191-1 0  9991","RCS_SIZE":"LARGE","OBJECT_TYPE":"PAYLOAD","SITE":"AFWTR","DECAY_DATE":null,"MEAN_MOTION_DDOT":"0.0000000000000","EPOCH":"2022-09-03T22:00:00.999936","CENTER_NAME":"EARTH","ARG_OF_PERICENTER":"115.7659","SEMIMAJOR_AXIS":"6913.081","MEAN_MOTION_DOT":"-0.01221226","ELEMENT_SET_NO":"999","INCLINATION":"97.6555","REV_AT_EPOCH":"130","EPHEMERIS_TYPE":"0","NORAD_CAT_ID":"53225","ECCENTRICITY":"0.00021880","COUNTRY_CODE":"US","GP_ID":"211674043","TLE_LINE2":"2 53225  97.6555 307.0615 0002188 115.7659  86.2162 15.10411421  1300","TIME_SYSTEM":"UTC","MEAN_ANOMALY":"86.2162","MEAN_ELEMENT_THEORY":"SGP4","FILE":"3556957","BSTAR":"-0.08119100000000","REF_FRAME":"TEME"}];
